{"spkid": "50333760", "covariance": {"epoch": "2457036.5", "elements": [{"value": ".8722907165027669", "title": "eccentricity", "units": null, "name": "e", "sigma": 4.02390224004432e-07, "label": "e"}, {"label": "q", "name": "q", "sigma": 1.09030822780703e-06, "title": "perihelion distance", "value": ".3470720851881741", "units": "au"}, {"label": "tp", "sigma": 3.65396854632534e-05, "name": "tp", "title": "time of perihelion passage", "value": "2457100.345793554511", "units": "TDB"}, {"label": "node", "sigma": 0.000426931287141672, "name": "om", "value": "189.9091801388888", "title": "longitude of the ascending node", "units": "deg"}, {"label": "peri", "sigma": 0.00037195541658445, "name": "w", "units": "deg", "value": "284.7833514121954", "title": "argument of perihelion"}, {"name": "i", "sigma": 6.31519927745218e-05, "title": "inclination", "value": "12.44275228259903", "units": "deg", "label": "i"}], "data": [["1.619178923743367E-13", "-4.387285195326751E-13", "6.12937191385506E-12", "-9.167227813385675E-11", "4.884358606667475E-11", "-1.304251748046909E-11"], ["-4.387285195326751E-13", "1.188772031623711E-12", "-1.66010635032387E-11", "2.490821312196591E-10", "-1.330182990813446E-10", "3.544209170689422E-11"], ["6.12937191385506E-12", "-1.66010635032387E-11", "1.335148613753489E-9", "-2.846403130173926E-9", "1.685535417111794E-9", "-6.899046240247715E-10"], ["-9.167227813385675E-11", "2.490821312196591E-10", "-2.846403130173926E-9", "1.822703239404446E-7", "-1.544906891714837E-7", "2.655355194426122E-8"], ["4.884358606667475E-11", "-1.330182990813446E-10", "1.685535417111794E-9", "-1.544906891714837E-7", "1.383508319265119E-7", "-2.270339468106558E-8"], ["-1.304251748046909E-11", "3.544209170689422E-11", "-6.899046240247715E-10", "2.655355194426122E-8", "-2.270339468106558E-8", "3.988174191393251E-9"]], "labels": ["e", "q", "tp", "node", "peri", "i"]}, "elements": [{"units": null, "title": "eccentricity", "value": ".8704186778604104", "name": "e", "sigma": "4.1155E-7", "label": "e"}, {"label": "a", "sigma": "1.2486E-8", "name": "a", "units": "au", "title": "semi-major axis", "value": "2.727387384891334"}, {"label": "q", "sigma": "1.1236E-6", "name": "q", "title": "perihelion distance", "value": ".3534184633210569", "units": "au"}, {"label": "i", "units": "deg", "value": "12.44998790947625", "title": "inclination; angle with respect to x-y ecliptic plane", "sigma": "6.18E-5", "name": "i"}, {"label": "node", "name": "om", "sigma": ".00042385", "units": "deg", "value": "188.8197732926413", "title": "longitude of the ascending node"}, {"sigma": ".00037049", "name": "w", "units": "deg", "title": "argument of perihelion", "value": "285.9277887655409", "label": "peri"}, {"label": "M", "title": "mean anomaly", "value": "179.820759335323", "units": "deg", "sigma": "1.1463E-5", "name": "ma"}, {"label": "tp", "units": "TDB", "title": "time of perihelion passage", "value": "2460378.719192007595", "name": "tp", "sigma": "5.2209E-5"}, {"label": "period", "title": "sidereal orbital period", "value": "1645.199875536018", "units": "d", "sigma": "1.1297E-5", "name": "per"}, {"label": "n", "name": "n", "sigma": "1.5026E-9", "units": "deg/d", "value": ".2188183972982063", "title": "mean motion"}, {"label": "Q", "name": "ad", "sigma": "2.3353E-8", "title": "aphelion distance", "value": "5.101356306461612", "units": "au"}], "epoch": "2461200.5"}